[{"OBJECT_NAME":"FLOCK 4Q-7","OBJECT_ID":"2023-174BQ","EPOCH":"2026-03-05T11:38:14.402688","MEAN_MOTION":15.48884732,"ECCENTRICITY":0.00080117,"INCLINATION":97.3939,"RA_OF_ASC_NODE":152.9634,"ARG_OF_PERICENTER":152.1409,"MEAN_ANOMALY":208.0272,"EPHEMERIS_TYPE":0,"CLASSIFICATION_TYPE":"U","NORAD_CAT_ID":58318,"ELEMENT_SET_NO":999,"REV_AT_EPOCH":12966,"BSTAR":0.00072566999,"MEAN_MOTION_DOT":0.00039199,"MEAN_MOTION_DDOT":0},{"OBJECT_NAME":"FLOCK 4Q-2","OBJECT_ID":"2023-174BS","EPOCH":"2026-03-05T15:51:03.094272","MEAN_MOTION":15.44759252,"ECCENTRICITY":0.00080472,"INCLINATION":97.3869,"RA_OF_ASC_NODE":151.0003,"ARG_OF_PERICENTER":151.1287,"MEAN_ANOMALY":209.0409,"EPHEMERIS_TYPE":0,"CLASSIFICATION_TYPE":"U","NORAD_CAT_ID":58320,"ELEMENT_SET_NO":999,"REV_AT_EPOCH":12959,"BSTAR":0.00060591685,"MEAN_MOTION_DOT":0.00028342,"MEAN_MOTION_DDOT":0},{"OBJECT_NAME":"FLOCK 4Q-9","OBJECT_ID":"2023-174BU","EPOCH":"2026-03-05T05:23:57.445152","MEAN_MOTION":15.44394273,"ECCENTRICITY":0.00080763,"INCLINATION":97.3907,"RA_OF_ASC_NODE":150.6015,"ARG_OF_PERICENTER":153.4399,"MEAN_ANOMALY":206.7265,"EPHEMERIS_TYPE":0,"CLASSIFICATION_TYPE":"U","NORAD_CAT_ID":58322,"ELEMENT_SET_NO":999,"REV_AT_EPOCH":12951,"BSTAR":0.00071221756,"MEAN_MOTION_DOT":0.00032939,"MEAN_MOTION_DDOT":0},{"OBJECT_NAME":"FLOCK 4Q-4","OBJECT_ID":"2023-174BZ","EPOCH":"2026-03-05T05:24:37.606464","MEAN_MOTION":15.44017938,"ECCENTRICITY":0.00075138,"INCLINATION":97.3862,"RA_OF_ASC_NODE":149.9805,"ARG_OF_PERICENTER":170.8725,"MEAN_ANOMALY":189.2661,"EPHEMERIS_TYPE":0,"CLASSIFICATION_TYPE":"U","NORAD_CAT_ID":58327,"ELEMENT_SET_NO":999,"REV_AT_EPOCH":12949,"BSTAR":0.00061785334,"MEAN_MOTION_DOT":0.0002818,"MEAN_MOTION_DDOT":0},{"OBJECT_NAME":"FLOCK 4Q-13","OBJECT_ID":"2023-174CA","EPOCH":"2026-03-05T04:52:03.110592","MEAN_MOTION":15.46663882,"ECCENTRICITY":0.00075383,"INCLINATION":97.4026,"RA_OF_ASC_NODE":152.3485,"ARG_OF_PERICENTER":165.6463,"MEAN_ANOMALY":194.5003,"EPHEMERIS_TYPE":0,"CLASSIFICATION_TYPE":"U","NORAD_CAT_ID":58328,"ELEMENT_SET_NO":999,"REV_AT_EPOCH":12957,"BSTAR":0.00067806193,"MEAN_MOTION_DOT":0.00033879,"MEAN_MOTION_DDOT":0},{"OBJECT_NAME":"FLOCK 4Q-21","OBJECT_ID":"2023-174CB","EPOCH":"2026-03-05T04:56:29.173344","MEAN_MOTION":15.56888356,"ECCENTRICITY":0.00058731,"INCLINATION":97.394,"RA_OF_ASC_NODE":155.3677,"ARG_OF_PERICENTER":171.3738,"MEAN_ANOMALY":188.762,"EPHEMERIS_TYPE":0,"CLASSIFICATION_TYPE":"U","NORAD_CAT_ID":58329,"ELEMENT_SET_NO":999,"REV_AT_EPOCH":12979,"BSTAR":0.00076304743,"MEAN_MOTION_DOT":0.0005506,"MEAN_MOTION_DDOT":0},{"OBJECT_NAME":"FLOCK 4BE-18","OBJECT_ID":"2024-149N","EPOCH":"2026-03-05T04:31:46.285824","MEAN_MOTION":15.38057581,"ECCENTRICITY":0.00031063,"INCLINATION":97.3783,"RA_OF_ASC_NODE":147.0932,"ARG_OF_PERICENTER":261.665,"MEAN_ANOMALY":98.4243,"EPHEMERIS_TYPE":0,"CLASSIFICATION_TYPE":"U","NORAD_CAT_ID":60480,"ELEMENT_SET_NO":999,"REV_AT_EPOCH":8630,"BSTAR":0.00063126338,"MEAN_MOTION_DOT":0.00023605,"MEAN_MOTION_DDOT":0},{"OBJECT_NAME":"FLOCK 4BE-7","OBJECT_ID":"2024-149P","EPOCH":"2026-03-05T10:59:23.063712","MEAN_MOTION":15.36102419,"ECCENTRICITY":0.0002069,"INCLINATION":97.3809,"RA_OF_ASC_NODE":146.9624,"ARG_OF_PERICENTER":249.333,"MEAN_ANOMALY":110.7692,"EPHEMERIS_TYPE":0,"CLASSIFICATION_TYPE":"U","NORAD_CAT_ID":60481,"ELEMENT_SET_NO":999,"REV_AT_EPOCH":8630,"BSTAR":0.00055402259,"MEAN_MOTION_DOT":0.0001943,"MEAN_MOTION_DDOT":0},{"OBJECT_NAME":"FLOCK 4BE-26","OBJECT_ID":"2024-149S","EPOCH":"2026-03-05T05:15:05.931360","MEAN_MOTION":15.43297936,"ECCENTRICITY":0.00059029,"INCLINATION":97.3771,"RA_OF_ASC_NODE":147.0096,"ARG_OF_PERICENTER":253.617,"MEAN_ANOMALY":106.4429,"EPHEMERIS_TYPE":0,"CLASSIFICATION_TYPE":"U","NORAD_CAT_ID":60484,"ELEMENT_SET_NO":999,"REV_AT_EPOCH":8630,"BSTAR":0.0021709756,"MEAN_MOTION_DOT":0.00097692,"MEAN_MOTION_DDOT":0},{"OBJECT_NAME":"FLOCK 4BE-36","OBJECT_ID":"2024-149U","EPOCH":"2026-03-05T11:31:49.443168","MEAN_MOTION":15.38937418,"ECCENTRICITY":0.00028097,"INCLINATION":97.3791,"RA_OF_ASC_NODE":147.9264,"ARG_OF_PERICENTER":272.8112,"MEAN_ANOMALY":87.2812,"EPHEMERIS_TYPE":0,"CLASSIFICATION_TYPE":"U","NORAD_CAT_ID":60486,"ELEMENT_SET_NO":999,"REV_AT_EPOCH":8638,"BSTAR":0.00064404731,"MEAN_MOTION_DOT":0.00024788,"MEAN_MOTION_DDOT":0},{"OBJECT_NAME":"FLOCK 4BE-25","OBJECT_ID":"2024-149V","EPOCH":"2026-03-05T05:03:01.516608","MEAN_MOTION":15.35825034,"ECCENTRICITY":0.00012783,"INCLINATION":97.3848,"RA_OF_ASC_NODE":146.8632,"ARG_OF_PERICENTER":239.6227,"MEAN_ANOMALY":120.4891,"EPHEMERIS_TYPE":0,"CLASSIFICATION_TYPE":"U","NORAD_CAT_ID":60487,"ELEMENT_SET_NO":999,"REV_AT_EPOCH":8626,"BSTAR":0.00053641219,"MEAN_MOTION_DOT":0.0001864,"MEAN_MOTION_DDOT":0},{"OBJECT_NAME":"FLOCK 4BE-31","OBJECT_ID":"2024-149W","EPOCH":"2026-03-05T04:35:53.636064","MEAN_MOTION":15.39705561,"ECCENTRICITY":0.00017238,"INCLINATION":97.3847,"RA_OF_ASC_NODE":148.2498,"ARG_OF_PERICENTER":268.2631,"MEAN_ANOMALY":91.8417,"EPHEMERIS_TYPE":0,"CLASSIFICATION_TYPE":"U","NORAD_CAT_ID":60488,"ELEMENT_SET_NO":999,"REV_AT_EPOCH":8635,"BSTAR":0.00070547777,"MEAN_MOTION_DOT":0.0002786,"MEAN_MOTION_DDOT":0},{"OBJECT_NAME":"FLOCK 4BE-20","OBJECT_ID":"2024-149X","EPOCH":"2026-03-05T04:28:36.747552","MEAN_MOTION":15.35105763,"ECCENTRICITY":0.00024534,"INCLINATION":97.3755,"RA_OF_ASC_NODE":145.9788,"ARG_OF_PERICENTER":265.8794,"MEAN_ANOMALY":94.2169,"EPHEMERIS_TYPE":0,"CLASSIFICATION_TYPE":"U","NORAD_CAT_ID":60489,"ELEMENT_SET_NO":999,"REV_AT_EPOCH":8624,"BSTAR":0.00052169273,"MEAN_MOTION_DOT":0.00017714,"MEAN_MOTION_DDOT":0},{"OBJECT_NAME":"FLOCK 4BE-23","OBJECT_ID":"2024-149Y","EPOCH":"2026-03-05T05:13:02.023392","MEAN_MOTION":15.34747825,"ECCENTRICITY":0.00020905,"INCLINATION":97.3834,"RA_OF_ASC_NODE":146.3289,"ARG_OF_PERICENTER":278.3991,"MEAN_ANOMALY":81.7015,"EPHEMERIS_TYPE":0,"CLASSIFICATION_TYPE":"U","NORAD_CAT_ID":60490,"ELEMENT_SET_NO":999,"REV_AT_EPOCH":8623,"BSTAR":0.000521938,"MEAN_MOTION_DOT":0.00017521,"MEAN_MOTION_DDOT":0},{"OBJECT_NAME":"FLOCK 4BE-15","OBJECT_ID":"2024-149Z","EPOCH":"2026-03-05T05:26:14.803008","MEAN_MOTION":15.39569476,"ECCENTRICITY":0.00028871,"INCLINATION":97.3773,"RA_OF_ASC_NODE":147.3612,"ARG_OF_PERICENTER":323.847,"MEAN_ANOMALY":36.258,"EPHEMERIS_TYPE":0,"CLASSIFICATION_TYPE":"U","NORAD_CAT_ID":60491,"ELEMENT_SET_NO":999,"REV_AT_EPOCH":8633,"BSTAR":0.0020981949,"MEAN_MOTION_DOT":0.00083259,"MEAN_MOTION_DDOT":0},{"OBJECT_NAME":"FLOCK 4BE-17","OBJECT_ID":"2024-149AA","EPOCH":"2026-03-05T12:38:37.867488","MEAN_MOTION":15.36469692,"ECCENTRICITY":0.00021213,"INCLINATION":97.3824,"RA_OF_ASC_NODE":147.3076,"ARG_OF_PERICENTER":253.9264,"MEAN_ANOMALY":106.1747,"EPHEMERIS_TYPE":0,"CLASSIFICATION_TYPE":"U","NORAD_CAT_ID":60492,"ELEMENT_SET_NO":999,"REV_AT_EPOCH":8632,"BSTAR":0.00057004029,"MEAN_MOTION_DOT":0.00020233,"MEAN_MOTION_DDOT":0}]
